{
  "norad_id": 55239,
  "name": "APSTAR-6E",
  "history": [
    {
      "epoch": "2026-03-25T14:34:38.425152",
      "apogee_km": 35791.60185309394,
      "perigee_km": 35784.21436199109,
      "latitude_deg": 0.01876192615716991,
      "longitude_deg": -165.7906387199182,
      "semi_major_axis_km": 42166.045107542515,
      "eccentricity": 8.76e-05,
      "inclination_deg": 0.0189,
      "raan_deg": 217.0922,
      "arg_perigee_deg": 107.3207,
      "mean_anomaly_deg": 211.2565,
      "mean_motion_rev_day": 1.00267101
    }
  ]
}